CCSDS_OMM_VERS = 2.0
CREATION_DATE  = 
ORIGINATOR     = 

OBJECT_NAME    = CYGNUS NG-23
OBJECT_ID      = 2025-208A
CENTER_NAME    = EARTH
REF_FRAME      = TEME
TIME_SYSTEM    = UTC
MEAN_ELEMENT_THEORY = SGP/SGP4

EPOCH          = 2025-12-31T13:33:45.664704
MEAN_MOTION    = 15.48977139
ECCENTRICITY   = .00075032
INCLINATION    = 51.6330
RA_OF_ASC_NODE = 49.2494
ARG_OF_PERICENTER = 324.2875
MEAN_ANOMALY   = 35.7611

EPHEMERIS_TYPE = 0
CLASSIFICATION_TYPE = U
NORAD_CAT_ID   = 65616
ELEMENT_SET_NO = 999
REV_AT_EPOCH   = 22
BSTAR          = .28664639E-3
MEAN_MOTION_DOT = .15372E-3
MEAN_MOTION_DDOT = 0

CCSDS_OMM_VERS = 2.0
CREATION_DATE  = 
ORIGINATOR     = 

OBJECT_NAME    = DRAGONFLY
OBJECT_ID      = 1998-067XH
CENTER_NAME    = EARTH
REF_FRAME      = TEME
TIME_SYSTEM    = UTC
MEAN_ELEMENT_THEORY = SGP/SGP4

EPOCH          = 2025-12-31T09:20:47.171040
MEAN_MOTION    = 15.79537567
ECCENTRICITY   = .00087551
INCLINATION    = 51.6248
RA_OF_ASC_NODE = 39.7890
ARG_OF_PERICENTER = 26.0214
MEAN_ANOMALY   = 334.1226

EPHEMERIS_TYPE = 0
CLASSIFICATION_TYPE = U
NORAD_CAT_ID   = 65729
ELEMENT_SET_NO = 999
REV_AT_EPOCH   = 1610
BSTAR          = .16556772E-2
MEAN_MOTION_DOT = .319553E-2
MEAN_MOTION_DDOT = 0

CCSDS_OMM_VERS = 2.0
CREATION_DATE  = 
ORIGINATOR     = 

OBJECT_NAME    = 1998-067XK
OBJECT_ID      = 1998-067XK
CENTER_NAME    = EARTH
REF_FRAME      = TEME
TIME_SYSTEM    = UTC
MEAN_ELEMENT_THEORY = SGP/SGP4

EPOCH          = 2025-12-31T08:22:53.261184
MEAN_MOTION    = 15.69782489
ECCENTRICITY   = .00052581
INCLINATION    = 51.6292
RA_OF_ASC_NODE = 42.5594
ARG_OF_PERICENTER = 0.6841
MEAN_ANOMALY   = 359.4162

EPHEMERIS_TYPE = 0
CLASSIFICATION_TYPE = U
NORAD_CAT_ID   = 65731
ELEMENT_SET_NO = 999
REV_AT_EPOCH   = 1606
BSTAR          = .12005982E-2
MEAN_MOTION_DOT = .148249E-2
MEAN_MOTION_DDOT = 0

CCSDS_OMM_VERS = 2.0
CREATION_DATE  = 
ORIGINATOR     = 

OBJECT_NAME    = RSP-03
OBJECT_ID      = 1998-067XL
CENTER_NAME    = EARTH
REF_FRAME      = TEME
TIME_SYSTEM    = UTC
MEAN_ELEMENT_THEORY = SGP/SGP4

EPOCH          = 2025-12-31T12:04:15.569472
MEAN_MOTION    = 15.74188922
ECCENTRICITY   = .0006366
INCLINATION    = 51.6266
RA_OF_ASC_NODE = 40.5662
ARG_OF_PERICENTER = 8.0216
MEAN_ANOMALY   = 352.0884

EPHEMERIS_TYPE = 0
CLASSIFICATION_TYPE = U
NORAD_CAT_ID   = 65732
ELEMENT_SET_NO = 999
REV_AT_EPOCH   = 1611
BSTAR          = .14156699E-2
MEAN_MOTION_DOT = .212547E-2
MEAN_MOTION_DDOT = 0

CCSDS_OMM_VERS = 2.0
CREATION_DATE  = 
ORIGINATOR     = 

OBJECT_NAME    = GHS-01
OBJECT_ID      = 1998-067XM
CENTER_NAME    = EARTH
REF_FRAME      = TEME
TIME_SYSTEM    = UTC
MEAN_ELEMENT_THEORY = SGP/SGP4

EPOCH          = 2025-12-30T08:21:52.063200
MEAN_MOTION    = 15.84202469
ECCENTRICITY   = .0009807
INCLINATION    = 51.6270
RA_OF_ASC_NODE = 44.0965
ARG_OF_PERICENTER = 24.2416
MEAN_ANOMALY   = 335.9046

EPHEMERIS_TYPE = 0
CLASSIFICATION_TYPE = U
NORAD_CAT_ID   = 65733
ELEMENT_SET_NO = 999
REV_AT_EPOCH   = 1596
BSTAR          = .18873592E-2
MEAN_MOTION_DOT = .460338E-2
MEAN_MOTION_DDOT = 0

CCSDS_OMM_VERS = 2.0
CREATION_DATE  = 
ORIGINATOR     = 

OBJECT_NAME    = YOTSUBA-KULOVER
OBJECT_ID      = 1998-067XN
CENTER_NAME    = EARTH
REF_FRAME      = TEME
TIME_SYSTEM    = UTC
MEAN_ELEMENT_THEORY = SGP/SGP4

EPOCH          = 2025-12-31T09:49:30.791424
MEAN_MOTION    = 15.62232212
ECCENTRICITY   = .00032367
INCLINATION    = 51.6299
RA_OF_ASC_NODE = 45.9643
ARG_OF_PERICENTER = 30.8043
MEAN_ANOMALY   = 329.3141

EPHEMERIS_TYPE = 0
CLASSIFICATION_TYPE = U
NORAD_CAT_ID   = 65941
ELEMENT_SET_NO = 999
REV_AT_EPOCH   = 1277
BSTAR          = .10966389E-2
MEAN_MOTION_DOT = .9922E-3
MEAN_MOTION_DDOT = 0

CCSDS_OMM_VERS = 2.0
CREATION_DATE  = 
ORIGINATOR     = 

OBJECT_NAME    = BOTAN
OBJECT_ID      = 1998-067XP
CENTER_NAME    = EARTH
REF_FRAME      = TEME
TIME_SYSTEM    = UTC
MEAN_ELEMENT_THEORY = SGP/SGP4

EPOCH          = 2025-12-31T08:46:03.575424
MEAN_MOTION    = 15.67314606
ECCENTRICITY   = .00041799
INCLINATION    = 51.6280
RA_OF_ASC_NODE = 44.9156
ARG_OF_PERICENTER = 19.0341
MEAN_ANOMALY   = 341.0810

EPHEMERIS_TYPE = 0
CLASSIFICATION_TYPE = U
NORAD_CAT_ID   = 65942
ELEMENT_SET_NO = 999
REV_AT_EPOCH   = 1278
BSTAR          = .14670178E-2
MEAN_MOTION_DOT = .164057E-2
MEAN_MOTION_DDOT = 0

CCSDS_OMM_VERS = 2.0
CREATION_DATE  = 
ORIGINATOR     = 

OBJECT_NAME    = E-KAGAKU-1
OBJECT_ID      = 1998-067XQ
CENTER_NAME    = EARTH
REF_FRAME      = TEME
TIME_SYSTEM    = UTC
MEAN_ELEMENT_THEORY = SGP/SGP4

EPOCH          = 2025-12-31T02:08:55.896576
MEAN_MOTION    = 15.62184482
ECCENTRICITY   = .00018553
INCLINATION    = 51.6301
RA_OF_ASC_NODE = 47.5837
ARG_OF_PERICENTER = 17.3955
MEAN_ANOMALY   = 342.7102

EPHEMERIS_TYPE = 0
CLASSIFICATION_TYPE = U
NORAD_CAT_ID   = 65943
ELEMENT_SET_NO = 999
REV_AT_EPOCH   = 1272
BSTAR          = .11676733E-2
MEAN_MOTION_DOT = .105555E-2
MEAN_MOTION_DDOT = 0

CCSDS_OMM_VERS = 2.0
CREATION_DATE  = 
ORIGINATOR     = 

OBJECT_NAME    = HRC MONOBLOCK CAMERA
OBJECT_ID      = 1998-067XR
CENTER_NAME    = EARTH
REF_FRAME      = TEME
TIME_SYSTEM    = UTC
MEAN_ELEMENT_THEORY = SGP/SGP4

EPOCH          = 2025-12-31T10:03:51.939360
MEAN_MOTION    = 15.55532276
ECCENTRICITY   = .00015926
INCLINATION    = 51.6311
RA_OF_ASC_NODE = 48.2779
ARG_OF_PERICENTER = 284.7736
MEAN_ANOMALY   = 75.3079

EPHEMERIS_TYPE = 0
CLASSIFICATION_TYPE = U
NORAD_CAT_ID   = 66052
ELEMENT_SET_NO = 999
REV_AT_EPOCH   = 1174
BSTAR          = .67234959E-3
MEAN_MOTION_DOT = .46648E-3
MEAN_MOTION_DDOT = 0

CCSDS_OMM_VERS = 2.0
CREATION_DATE  = 
ORIGINATOR     = 

OBJECT_NAME    = HTV-X1
OBJECT_ID      = 2025-241A
CENTER_NAME    = EARTH
REF_FRAME      = TEME
TIME_SYSTEM    = UTC
MEAN_ELEMENT_THEORY = SGP/SGP4

EPOCH          = 2025-12-31T13:33:45.664704
MEAN_MOTION    = 15.48977139
ECCENTRICITY   = .00075032
INCLINATION    = 51.6330
RA_OF_ASC_NODE = 49.2494
ARG_OF_PERICENTER = 324.2875
MEAN_ANOMALY   = 35.7611

EPHEMERIS_TYPE = 0
CLASSIFICATION_TYPE = U
NORAD_CAT_ID   = 66174
ELEMENT_SET_NO = 999
REV_AT_EPOCH   = 51
BSTAR          = .28664639E-3
MEAN_MOTION_DOT = .15372E-3
MEAN_MOTION_DDOT = 0

CCSDS_OMM_VERS = 2.0
CREATION_DATE  = 
ORIGINATOR     = 

OBJECT_NAME    = SZ-21 MODULE
OBJECT_ID      = 2025-246C
CENTER_NAME    = EARTH
REF_FRAME      = TEME
TIME_SYSTEM    = UTC
MEAN_ELEMENT_THEORY = SGP/SGP4

EPOCH          = 2025-12-31T01:40:01.124544
MEAN_MOTION    = 15.63556813
ECCENTRICITY   = .0003033
INCLINATION    = 41.4763
RA_OF_ASC_NODE = 264.1497
ARG_OF_PERICENTER = 3.4177
MEAN_ANOMALY   = 356.6683

EPHEMERIS_TYPE = 0
CLASSIFICATION_TYPE = U
NORAD_CAT_ID   = 66515
ELEMENT_SET_NO = 999
REV_AT_EPOCH   = 731
BSTAR          = .42604371E-3
MEAN_MOTION_DOT = .40549E-3
MEAN_MOTION_DDOT = 0

CCSDS_OMM_VERS = 2.0
CREATION_DATE  = 
ORIGINATOR     = 

OBJECT_NAME    = SHENZHOU-22
OBJECT_ID      = 2025-272A
CENTER_NAME    = EARTH
REF_FRAME      = TEME
TIME_SYSTEM    = UTC
MEAN_ELEMENT_THEORY = SGP/SGP4

EPOCH          = 2025-12-31T14:32:04.488000
MEAN_MOTION    = 15.59967357
ECCENTRICITY   = .00098464
INCLINATION    = 41.4668
RA_OF_ASC_NODE = 262.1077
ARG_OF_PERICENTER = 190.9351
MEAN_ANOMALY   = 169.1275

EPHEMERIS_TYPE = 0
CLASSIFICATION_TYPE = U
NORAD_CAT_ID   = 66645
ELEMENT_SET_NO = 999
REV_AT_EPOCH   = 26598
BSTAR          = .31025982E-3
MEAN_MOTION_DOT = .25573E-3
MEAN_MOTION_DDOT = 0

